NORAD_CAT_ID,OBJECT_NAME,OBJECT_TYPE,EPOCH,MEAN_MOTION,ECCENTRICITY,INCLINATION,RA_OF_ASC_NODE,ARG_OF_PERICENTER,MEAN_ANOMALY,BSTAR,MEAN_MOTION_DOT,MEAN_MOTION_DDOT,TLE_LINE0,TLE_LINE1,TLE_LINE2,SEMIMAJOR_AXIS,PERIOD,APOGEE,PERIGEE,DECAYED
52474.0,STARLINK-3855,PAYLOAD,2022-09-26 08:59:56,15.088334,0.0001837,53.2157,306.8845,42.6138,317.4996,0.00010558,1.392e-05,0.0,0 STARLINK-3855,1 52474U 22049Z   22269.37495378  .00001392  00000-0  10558-3 0  9993,2 52474  53.2157 306.8845 0001837  42.6138 317.4996 15.08833400 22122,6917.901,95.438,541.036,538.495,0.0
52474.0,STARLINK-3855,PAYLOAD,2022-09-26 20:07:38,15.08833566,0.0002017,53.2153,304.8073,42.0358,318.0789,-5.3032e-05,-1.132e-05,0.0,0 STARLINK-3855,1 52474U 22049Z   22269.83863902 -.00001132  00000-0 -53032-4 0  9995,2 52474  53.2153 304.8073 0002017  42.0358 318.0789 15.08833566 22195,6917.9,95.438,541.16,538.37,0.0
52474.0,STARLINK-3855,PAYLOAD,2022-09-27 04:04:34,15.08827704,0.0002070999999999,53.2153,303.3203,39.5914,320.5229,2.2159e-05,6.4e-07,0.0,0 STARLINK-3855,1 52474U 22049Z   22270.16984072  .00000064  00000-0  22159-4 0  9992,2 52474  53.2153 303.3203 0002071  39.5914 320.5229 15.08827704 22401,6917.918000000002,95.438,541.216,538.35,0.0
52474.0,STARLINK-3855,PAYLOAD,2022-09-27 08:50:43,15.08836599,0.0001904,53.2159,302.4259,42.877,317.2371,-2.2211e-05,-6.42e-06,0.0,0 STARLINK-3855,1 52474U 22049Z   22270.36855738 -.00000642  00000-0 -22211-4 0  9993,2 52474  53.2159 302.4259 0001904  42.8770 317.2371 15.08836599 22277,6917.891,95.438,541.073,538.439,0.0
52474.0,STARLINK-3855,PAYLOAD,2022-09-28 02:19:57,15.08842253,0.0001975,53.2158,299.1555,45.1659,314.9493,0.00014951,2.092e-05,0.0,0 STARLINK-3855,1 52474U 22049Z   22271.09719029  .00002092  00000-0  14951-3 0  9996,2 52474  53.2158 299.1555 0001975  45.1659 314.9493 15.08842253 22540,6917.874,95.437,541.105,538.372,0.0
52474.0,STARLINK-3855,PAYLOAD,2022-09-28 11:52:16,15.088355300000002,0.0001875999999999,53.2177,297.374,55.5393,304.5776,8.204200000000001e-05,1.018e-05,0.0,0 STARLINK-3855,1 52474U 22049Z   22271.49463729  .00001018  00000-0  82042-4 0  9997,2 52474  53.2177 297.3740 0001876  55.5393 304.5776 15.08835530 22445,6917.894,95.438,541.057,538.461,0.0
52474.0,STARLINK-3855,PAYLOAD,2022-09-29 08:32:17,15.08836929,0.000195,53.2158,293.5058,41.1963,318.9176,0.0001233,1.675e-05,0.0,0 STARLINK-3855,1 52474U 22049Z   22272.35575991  .00001675  00000-0  12330-3 0  9999,2 52474  53.2158 293.5058 0001950  41.1963 318.9176 15.08836929 22571,6917.89,95.438,541.104,538.406,0.0
52474.0,STARLINK-3855,PAYLOAD,2022-09-29 18:04:36,15.0883928,0.0001949,53.215,291.7233,42.8271,317.2872,8.1683e-05,1.012e-05,0.0,0 STARLINK-3855,1 52474U 22049Z   22272.75320036  .00001012  00000-0  81683-4 0  9994,2 52474  53.2150 291.7233 0001949  42.8271 317.2872 15.08839280 22631,6917.8830000000025,95.438,541.096,538.399,0.0
52474.0,STARLINK-3855,PAYLOAD,2022-09-30 02:01:32,15.08835128,0.0002147,53.2152,290.2344,45.4174,314.6993,-2.1517e-05,-6.31e-06,0.0,0 STARLINK-3855,1 52474U 22049Z   22273.08440822 -.00000631  00000-0 -21517-4 0  9995,2 52474  53.2152 290.2344 0002147  45.4174 314.6993 15.08835128 22847,6917.895,95.438,541.246,538.275,0.0
52474.0,STARLINK-3855,PAYLOAD,2022-09-30 08:23:05,15.08841142,0.0002126999999999,53.2154,289.0453,47.0449,313.0722,3.3481e-05,2.45e-06,0.0,0 STARLINK-3855,1 52474U 22049Z   22273.34936389  .00000245  00000-0  33481-4 0  9994,2 52474  53.2154 289.0453 0002127  47.0449 313.0722 15.08841142 22887,6917.877,95.437,541.2130000000002,538.27,0.0
52474.0,STARLINK-3855,PAYLOAD,2022-09-30 17:55:23,15.08844612,0.000208,53.2159,287.2605,46.5745,313.5420000000001,0.00016448,2.331e-05,0.0,0 STARLINK-3855,1 52474U 22049Z   22273.74679937  .00002331  00000-0  16448-3 0  9992,2 52474  53.2159 287.2605 0002080  46.5745 313.5420 15.08844612 22786,6917.866,95.437,541.17,538.2919999999998,0.0
52474.0,STARLINK-3855,PAYLOAD,2022-10-01 09:49:14,15.08845044,0.0002118,53.2147,284.2856,47.1416,312.9754,5.895100000000001e-05,6.5e-06,0.0,0 STARLINK-3855,1 52474U 22049Z   22274.40920133  .00000650  00000-0  58951-4 0  9991,2 52474  53.2147 284.2856 0002118  47.1416 312.9754 15.08845044 23045,6917.865,95.437,541.195,538.265,0.0
52474.0,STARLINK-3855,PAYLOAD,2022-10-02 08:04:39,15.08841446,0.0002104,53.2148,280.1218,45.2516,314.8647,6.8185e-05,7.97e-06,0.0,0 STARLINK-3855,1 52474U 22049Z   22275.33656253  .00000797  00000-0  68185-4 0  9995,2 52474  53.2148 280.1218 0002104  45.2516 314.8647 15.08841446 23187,6917.876,95.437,541.196,538.285,0.0
52474.0,STARLINK-3855,PAYLOAD,2022-10-02 17:36:58,15.08836422,0.0002006999999999,53.215,278.3368,45.8541,314.2615,-3.2706e-05,-8.09e-06,0.0,0 STARLINK-3855,1 52474U 22049Z   22275.73400881 -.00000809  00000-0 -32706-4 0  9999,2 52474  53.2150 278.3368 0002007  45.8541 314.2615 15.08836422 23245,6917.891,95.438,541.145,538.368,0.0
52474.0,STARLINK-3855,PAYLOAD,2022-10-03 04:44:39,15.0884511,0.0001996999999999,53.2151,276.2552,45.4079,314.7075,6.5118e-05,7.48e-06,0.0,0 STARLINK-3855,1 52474U 22049Z   22276.19768192  .00000748  00000-0  65118-4 0  9995,2 52474  53.2151 276.2552 0001997  45.4079 314.7075 15.08845110 23314,6917.865,95.437,541.111,538.3480000000002,0.0
52474.0,STARLINK-3855,PAYLOAD,2022-10-03 09:30:49,15.08846237,0.0002045999999999,53.2145,275.3635,47.6054,312.5111,0.00020358,2.954e-05,0.0,0 STARLINK-3855,1 52474U 22049Z   22276.39640084  .00002954  00000-0  20358-3 0  9993,2 52474  53.2145 275.3635 0002046  47.6054 312.5111 15.08846237 23185,6917.861,95.437,541.1419999999998,538.311,0.0
52474.0,STARLINK-3855,PAYLOAD,2022-10-03 17:27:44,15.08857794,0.0002061,53.2152,273.8772,48.4804,311.6364,0.00034974,5.285e-05,0.0,0 STARLINK-3855,1 52474U 22049Z   22276.72759498  .00005285  00000-0  34974-3 0  9999,2 52474  53.2152 273.8772 0002061  48.4804 311.6364 15.08857794 23233,6917.826,95.436,541.117,538.265,0.0
52474.0,STARLINK-3855,PAYLOAD,2022-10-04 09:21:35,15.08859309,0.0002084,53.2147,270.9043,49.643,310.4744,0.00053721,8.276e-05,0.0,0 STARLINK-3855,1 52474U 22049Z   22277.38999445  .00008276  00000-0  53721-3 0  9994,2 52474  53.2147 270.9043 0002084  49.6430 310.4744 15.08859309 23490,6917.821,95.436,541.128,538.245,0.0
52474.0,STARLINK-3855,PAYLOAD,2022-10-04 17:18:31,15.08851356,0.0002088,53.2141,269.4172,49.3609,310.7565,0.00020441,2.967e-05,0.0,0 STARLINK-3855,1 52474U 22049Z   22277.72119437  .00002967  00000-0  20441-3 0  9991,2 52474  53.2141 269.4172 0002088  49.3609 310.7565 15.08851356 23543,6917.846,95.437,541.155,538.266,0.0
52474.0,STARLINK-3855,PAYLOAD,2022-10-05 09:12:22,15.08847899,0.0001899,53.215,266.4435,52.9705,307.1461,8.272299999999999e-05,1.029e-05,0.0,0 STARLINK-3855,1 52474U 22049Z   22278.38359312  .00001029  00000-0  82723-4 0  9992,2 52474  53.2150 266.4435 0001899  52.9705 307.1461 15.08847899 23641,6917.856,95.437,541.035,538.408,0.0
52474.0,STARLINK-3855,PAYLOAD,2022-10-06 02:41:37,15.08838404,0.0001844999999999,53.2141,263.1717,53.8376,306.2786,-1.5099e-06,-3.12e-06,0.0,0 STARLINK-3855,1 52474U 22049Z   22279.11223700 -.00000312  00000-0 -15099-5 0  9994,2 52474  53.2141 263.1717 0001845  53.8376 306.2786 15.08838404 23757,6917.885,95.438,541.0269999999998,538.474,0.0
52474.0,STARLINK-3855,PAYLOAD,2022-10-06 09:03:09,15.08842026,0.0001991,53.2144,261.9832,47.0252,313.0907,2.9884e-05,1.87e-06,0.0,0 STARLINK-3855,1 52474U 22049Z   22279.37719654  .00000187  00000-0  29884-4 0  9994,2 52474  53.2144 261.9832 0001991  47.0252 313.0907 15.08842026 23637,6917.874,95.437,541.117,538.362,0.0
52474.0,STARLINK-3855,PAYLOAD,2022-10-06 15:24:42,15.0884695,0.0001984,53.2143,260.7938,46.9695,313.1463,0.00010957,1.456e-05,0.0,0 STARLINK-3855,1 52474U 22049Z   22279.64215352  .00001456  00000-0  10957-3 0  9990,2 52474  53.2143 260.7938 0001984  46.9695 313.1463 15.08846950 23673,6917.859,95.437,541.097,538.352,0.0
52474.0,STARLINK-3855,PAYLOAD,2022-10-07 05:43:10,15.08842464,0.0001879,53.2148,258.1142,44.7912,315.3232,0.00011378,1.523e-05,0.0,0 STARLINK-3855,1 52474U 22049Z   22280.23831531  .00001523  00000-0  11378-3 0  9993,2 52474  53.2148 258.1142 0001879  44.7912 315.3232 15.08842464 23929,6917.873000000001,95.437,541.038,538.438,0.0
52474.0,STARLINK-3855,PAYLOAD,2022-10-07 08:53:56,15.08841527,0.0001976,53.2147,257.5228,48.6803,311.4359,0.00010075,1.316e-05,0.0,0 STARLINK-3855,1 52474U 22049Z   22280.37079640  .00001316  00000-0  10075-3 0  9996,2 52474  53.2147 257.5228 0001976  48.6803 311.4359 15.08841527 23786,6917.876,95.437,541.1080000000002,538.374,0.0
52474.0,STARLINK-3855,PAYLOAD,2022-10-07 15:15:29,15.08843022,0.0001928,53.2146,256.3327,47.4265,312.689,0.00016042,2.266e-05,0.0,0 STARLINK-3855,1 52474U 22049Z   22280.63575543  .00002266  00000-0  16042-3 0  9993,2 52474  53.2146 256.3327 0001928  47.4265 312.6890 15.08843022 23828,6917.871,95.437,541.07,538.4019999999998,0.0
52474.0,STARLINK-3855,PAYLOAD,2022-10-08 05:33:57,15.08836956,0.0001771,53.2153,253.6566,49.6243,310.4904,2.5745e-05,1.22e-06,0.0,0 STARLINK-3855,1 52474U 22049Z   22281.23191784  .00000122  00000-0  25745-4 0  9991,2 52474  53.2153 253.6566 0001771  49.6243 310.4904 15.08836956 24075,6917.89,95.438,540.98,538.53,0.0
52474.0,STARLINK-3855,PAYLOAD,2022-10-08 07:09:20,15.08836162,0.0001861,53.2155,253.3593,46.0414,314.0732,1.1229e-05,-1.09e-06,0.0,0 STARLINK-3855,1 52474U 22049Z   22281.29815842 -.00000109  00000-0  11229-4 0  9993,2 52474  53.2155 253.3593 0001861  46.0414 314.0732 15.08836162 23926,6917.892,95.438,541.045,538.47,0.0
52474.0,STARLINK-3855,PAYLOAD,2022-10-09 07:00:08,15.08833603,0.0001874,53.2151,248.8976,49.3307,310.7848,-2.3946e-05,-6.69e-06,0.0,0 STARLINK-3855,1 52474U 22049Z   22282.29176247 -.00000669  00000-0 -23946-4 0  9994,2 52474  53.2151 248.8976 0001874  49.3307 310.7848 15.08833603 24230,6917.9,95.438,541.061,538.469,0.0
